QIANFAN-17              
1 60395U 24140S   26001.80536328  .00000204  00000+0  29775-3 0  9996
2 60395  88.9788 297.3619 0015585 141.3052 218.9219 13.50981738 70846
QIANFAN-18              
1 60396U 24140T   26001.78477872  .00000182  00000+0  26358-3 0  9991
2 60396  88.9781 296.8962 0015404 124.7888 235.4715 13.50981749 70237
QIANFAN-19              
1 61552U 24185A   26001.81952270  .00000833  00000+0  42876-3 0  9995
2 61552  88.9808  75.6441 0005413 225.6941 134.3802 14.14319905 72503
QIANFAN-20              
1 61553U 24185B   26001.78766339  .00000907  00000+0  51763-3 0  9998
2 61553  88.9806  75.9917 0003610 282.7477  77.3303 14.08866919 72314
QIANFAN-21              
1 61554U 24185C   26001.79676525  .00001159  00000+0  51197-3 0  9998
2 61554  88.9722  74.6337 0008522 303.0515  56.9857 14.22639670 72822
QIANFAN-22              
1 61555U 24185D   26001.78320053  .00000323  00000+0  26851-3 0  9991
2 61555  88.9791  77.0538 0004490 302.1316  57.9419 13.86311844 71719
QIANFAN-23              
1 61556U 24185E   26001.76664078  .00000847  00000+0  42011-3 0  9995
2 61556  88.9799  75.4502 0005774 242.0689 117.9915 14.16315277 72584
QIANFAN-24              
1 61557U 24185F   26001.78254027  .00001146  00000+0  49485-3 0  9992
2 61557  88.9781  74.8206 0008060 221.4819 138.5762 14.23840883 72872
